INSAT-1C                
1 19330U 88063A   26065.50935623 -.00000222  00000+0  00000+0 0  9998
2 19330  11.4602 328.4554 0003773 125.3429 341.8634  1.00240404119318
COSMOS 1961             
1 19344U 88066A   26065.58679094 -.00000156  00000+0  00000+0 0  9997
2 19344  11.5935 330.3872 0001748 157.4303 327.9159  1.00275091137985
GORIZONT 16             
1 19397U 88071A   26066.00766169 -.00000140  00000+0  00000+0 0  9992
2 19397  11.6604 330.4848 0011778  77.5802 110.5634  0.99987327137210
SL-12 R/B(2)            
1 19400U 88071D   26065.87239552  .00000131  00000+0  00000+0 0  9991
2 19400  11.3858 329.7203 0019069 240.7834 296.4281  1.00545753131671
GSTAR 3                 
1 19483U 88081A   26065.40483637 -.00000106  00000+0  00000+0 0  9990
2 19483  11.2638 319.1310 0004545 219.6556  25.8008  1.00271973133569
SBS 5                   
1 19484U 88081B   26066.01251503 -.00000005  00000+0  00000+0 0  9992
2 19484  14.5823   1.7022 0008490 317.4789 225.5493  0.99795095 45443
TDRS 3                  
1 19548U 88091B   26064.79815523 -.00000303  00000+0  00000+0 0  9996
2 19548  12.6797 341.6841 0044183 353.3967  66.2018  1.00259845124356
IUS R/B(2)              
1 19550U 88091D   26066.13870227 -.00000297  00000+0  00000+0 0  9993
2 19550  12.3341 331.7279 0020647 304.3802 231.3210  1.00477851129082
RADUGA 22               
1 19596U 88095A   26065.51270762 -.00000277  00000+0  00000+0 0  9994
2 19596  11.6760 330.8092 0004530 205.4128 269.0912  1.00168840120620
STTW-3                  
1 19710U 88111A   26064.64746525 -.00000043  00000+0  00000+0 0  9990
2 19710  14.1048 346.3379 0003512 196.3398 282.9616  1.00194156129804
IUS R/B(2)              
1 19913U 89021D   26065.58699039 -.00000256  00000+0  00000+0 0  9993
2 19913   8.8722 321.0261 0022780 192.2322 306.0839  1.00621966124622
RADUGA 23               
1 19928U 89030A   26065.64068591 -.00000376  00000+0  00000+0 0  9992
2 19928  11.9231 332.6577 0018727 209.2217 331.9767  1.00261299133822
SUPERBIRD-A             
1 20040U 89041A   26065.87204884  .00000059  00000+0  00000+0 0  9990
2 20040  12.2946 333.0005 0003951  55.0330 116.8334  0.99750737133448
DFS 1                   
1 20041U 89041B   26065.91572280  .00000050  00000+0  00000+0 0  9995
2 20041  14.0402 347.3307 0017223 308.8820 244.3891  1.00666157123460
TVSAT 2                 
1 20168U 89062A   26066.02822507 -.00000067  00000+0  00000+0 0  9990
2 20168  14.6954 356.5633 0002871 227.7695 315.6887  0.99854902133488
FLTSATCOM 8 (USA 46)    
1 20253U 89077A   26065.52341990 -.00000370  00000+0  00000+0 0  9994
2 20253  12.4497 351.7780 0008612 335.1934 151.1159  1.00261933259539
GORIZONT 19             
1 20263U 89081A   26064.67420844 -.00000315  00000+0  00000+0 0  9990
2 20263  12.1887 334.1833 0005834 283.5271 248.8745  1.00211568 46300
